OBJECT_NAME,OBJECT_ID,EPOCH,MEAN_MOTION,ECCENTRICITY,INCLINATION,RA_OF_ASC_NODE,ARG_OF_PERICENTER,MEAN_ANOMALY,EPHEMERIS_TYPE,CLASSIFICATION_TYPE,NORAD_CAT_ID,ELEMENT_SET_NO,REV_AT_EPOCH,BSTAR,MEAN_MOTION_DOT,MEAN_MOTION_DDOT
ONEWEB-0365,2021-090N,2026-07-18T06:31:05.206656,13.19727047,.00020993,87.9194,298.7788,102.9898,257.1469,0,U,49291,999,23052,.1870659E-3,.88E-6,0
ONEWEB-0366,2021-090P,2026-07-18T06:19:35.004576,13.14502084,.00020298,87.8965,283.5150,98.3509,261.7851,0,U,49292,999,23164,-.60177528E-3,-.21E-5,0
ONEWEB-0367,2021-090Q,2026-07-18T05:21:44.849664,13.20773791,.00022255,87.9183,268.2566,100.5625,259.5759,0,U,49293,999,23392,.18532998E-3,.88E-6,0
ONEWEB-0368,2021-090R,2026-07-18T04:44:11.824512,13.20771759,.00016907,87.9172,268.2694,115.5014,244.6295,0,U,49294,999,23507,.78934362E-4,.45E-6,0
ONEWEB-0369,2021-090S,2026-07-18T13:40:58.110528,13.19726370,.00019997,87.9184,298.7246,103.2463,256.8892,0,U,49295,999,23055,-.7939857E-5,.1E-6,0
ONEWEB-0370,2021-090T,2026-07-18T05:35:05.656704,13.20772652,.00023222,87.9184,268.2541,93.5120,266.6279,0,U,49296,999,23396,-.1047683E-5,.13E-6,0
ONEWEB-0371,2021-090U,2026-07-18T13:52:20.604864,13.19725572,.00020875,87.9193,298.7176,100.9452,259.1916,0,U,49297,999,23059,-.83202419E-4,-.2E-6,0
ONEWEB-0372,2021-090V,2026-07-18T14:25:47.513568,13.20769499,.00020853,87.9182,268.1827,99.0129,261.1241,0,U,49298,999,23398,.11632217E-3,.6E-6,0
ONEWEB-0373,2021-090W,2026-07-18T05:56:53.508192,13.20772171,.00020683,87.9181,268.2524,95.9948,264.1422,0,U,49299,999,23512,-.12434027E-3,-.38E-6,0
ONEWEB-0374,2021-090X,2026-07-18T15:09:20.683296,13.14502751,.00014994,87.8970,283.4334,89.3042,270.8259,0,U,49300,999,23169,-.28308585E-3,-.92E-6,0
ONEWEB-0375,2021-090Y,2026-07-18T14:45:22.544064,13.20772566,.00015661,87.9181,268.1716,87.2899,272.8414,0,U,49301,999,23467,-.15405799E-3,-.5E-6,0
ONEWEB-0376,2021-090Z,2026-07-18T12:00:52.620192,13.19726454,.00021037,87.9191,298.7329,105.4863,254.6502,0,U,49302,999,23058,-.28669467E-3,-.102E-5,0
ONEWEB-0377,2021-090AA,2026-07-18T05:20:43.489248,13.20775500,.00032111,87.9225,268.2577,108.3899,251.7584,0,U,49303,999,23461,-.62296307E-2,-.2519E-4,0
ONEWEB-0378,2021-090AB,2026-07-18T14:55:17.711328,13.20771993,.00019059,87.9177,268.1755,98.2645,261.8704,0,U,49304,999,23393,.615673E-6,.13E-6,0
ONEWEB-0379,2021-090AC,2026-07-18T11:23:17.155104,13.14502458,.00018992,87.8968,283.4749,99.7229,260.4115,0,U,49305,999,23167,.1887101E-5,.13E-6,0
ONEWEB-0380,2021-090AD,2026-07-18T13:45:31.100832,13.19726921,.00022003,87.9186,298.7217,98.9999,261.1383,0,U,49306,999,23056,-.88824784E-4,-.23E-6,0
ONEWEB-0381,2021-090AE,2026-07-18T05:15:40.633056,13.20769996,.00018326,87.9182,268.2573,94.5926,265.5417,0,U,49307,999,23392,.28591471E-3,.129E-5,0
ONEWEB-0382,2021-090AF,2026-07-18T04:56:18.693024,13.20772338,.00017468,87.9180,268.2536,97.8887,262.2445,0,U,49308,999,23391,.59382246E-4,.37E-6,0
ONEWEB-0383,2021-090AG,2026-07-18T11:14:09.091392,13.14503066,.00018767,87.8972,283.4684,102.2347,257.8993,0,U,49309,999,23170,.24702501E-3,.104E-5,0
ONEWEB-0384,2021-090AH,2026-07-18T06:27:37.366272,13.20813983,.00015849,87.9183,268.2850,100.6947,259.4364,0,U,49310,999,23393,-.1143388E-3,-.34E-6,0
ONEWEB-0385,2021-090AJ,2026-07-18T13:52:03.078624,13.20770287,.00018948,87.9183,268.1850,96.7436,263.3913,0,U,49311,999,23394,.21262053E-3,.99E-6,0
ONEWEB-0386,2021-090AK,2026-07-18T05:10:49.691424,13.20771477,.00018465,87.9185,268.2494,99.0856,261.0486,0,U,49312,999,23391,-.3472064E-3,-.128E-5,0
ONEWEB-0387,2021-090AL,2026-07-18T13:54:28.442304,13.20770259,.00019278,87.9170,268.1942,87.7634,272.3720,0,U,49313,999,23396,.14011244E-3,.7E-6,0
ONEWEB-0388,2021-090AM,2026-07-18T13:38:41.555328,13.19726036,.00018595,87.9186,298.7207,100.0239,260.1104,0,U,49314,999,23055,-.33942719E-3,-.123E-5,0
ONEWEB-0389,2021-132A,2026-07-18T09:48:11.899584,13.17648471,.00016781,87.9148,359.6570,83.9455,276.1868,0,U,50469,999,22219,-.64204889E-3,-.236E-5,0
ONEWEB-0390,2021-132B,2026-07-17T22:54:32.350176,13.17648958,.00020728,87.9147,359.7483,90.5841,269.5528,0,U,50470,999,22213,-.49179235E-3,-.178E-5,0
ONEWEB-0391,2021-132C,2026-07-18T09:53:03.443424,13.17648661,.00019015,87.9150,359.6672,68.4906,291.6428,0,U,50471,999,22219,-.51869271E-3,-.189E-5,0
ONEWEB-0392,2021-132D,2026-07-17T23:40:42.650400,13.17650905,.00017002,87.9160,359.7222,83.5541,276.5784,0,U,50472,999,22217,.36334331E-4,.27E-6,0
ONEWEB-0393,2021-132E,2026-07-18T10:01:35.295168,13.17647376,.00017654,87.9145,359.6513,89.2194,270.9139,0,U,50473,999,22222,.78108857E-4,.43E-6,0
ONEWEB-0394,2021-132F,2026-07-18T14:05:04.687584,13.18685875,.00017632,87.9202,329.1991,100.2027,259.9305,0,U,50474,999,22573,.34068405E-3,.147E-5,0
