ONEWEB-0365             
1 49291U 21090N   26199.27158804  .00000088  00000+0  18707-3 0  9990
2 49291  87.9194 298.7788 0002099 102.9898 257.1469 13.19727047230528
ONEWEB-0366             
1 49292U 21090P   26199.26359959 -.00000210  00000+0 -60178-3 0  9992
2 49292  87.8965 283.5150 0002029  98.3509 261.7851 13.14502084231646
ONEWEB-0367             
1 49293U 21090Q   26199.22343576  .00000088  00000+0  18533-3 0  9996
2 49293  87.9183 268.2566 0002225 100.5625 259.5759 13.20773791233921
ONEWEB-0368             
1 49294U 21090R   26199.19735908  .00000045  00000+0  78934-4 0  9992
2 49294  87.9172 268.2694 0001690 115.5014 244.6295 13.20771759235075
ONEWEB-0369             
1 49295U 21090S   26199.57011702  .00000010  00000+0 -79399-5 0  9994
2 49295  87.9184 298.7246 0001999 103.2463 256.8892 13.19726370230557
ONEWEB-0370             
1 49296U 21090T   26199.23270436  .00000013  00000+0 -10477-5 0  9994
2 49296  87.9184 268.2541 0002322  93.5120 266.6279 13.20772652233962
ONEWEB-0371             
1 49297U 21090U   26199.57801626 -.00000020  00000+0 -83202-4 0  9997
2 49297  87.9193 298.7176 0002087 100.9452 259.1916 13.19725572230592
ONEWEB-0372             
1 49298U 21090V   26199.60124437  .00000060  00000+0  11632-3 0  9999
2 49298  87.9182 268.1827 0002085  99.0129 261.1241 13.20769499233980
ONEWEB-0373             
1 49299U 21090W   26199.24784153 -.00000038  00000+0 -12434-3 0  9995
2 49299  87.9181 268.2524 0002068  95.9948 264.1422 13.20772171235123
ONEWEB-0374             
1 49300U 21090X   26199.63148939 -.00000092  00000+0 -28309-3 0  9995
2 49300  87.8970 283.4334 0001499  89.3042 270.8259 13.14502751231696
ONEWEB-0375             
1 49301U 21090Y   26199.61484426 -.00000050  00000+0 -15406-3 0  9996
2 49301  87.9181 268.1716 0001566  87.2899 272.8414 13.20772566234674
ONEWEB-0376             
1 49302U 21090Z   26199.50060903 -.00000102  00000+0 -28669-3 0  9998
2 49302  87.9191 298.7329 0002103 105.4863 254.6502 13.19726454230582
ONEWEB-0377             
1 49303U 21090AA  26199.22272557 -.00002519  00000+0 -62296-2 0  9995
2 49303  87.9225 268.2577 0003211 108.3899 251.7584 13.20775500234614
ONEWEB-0378             
1 49304U 21090AB  26199.62173277  .00000013  00000+0  61567-6 0  9998
2 49304  87.9177 268.1755 0001905  98.2645 261.8704 13.20771993233934
ONEWEB-0379             
1 49305U 21090AC  26199.47450411  .00000013  00000+0  18871-5 0  9999
2 49305  87.8968 283.4749 0001899  99.7229 260.4115 13.14502458231672
ONEWEB-0380             
1 49306U 21090AD  26199.57327663 -.00000023  00000+0 -88825-4 0  9991
2 49306  87.9186 298.7217 0002200  98.9999 261.1383 13.19726921230567
ONEWEB-0381             
1 49307U 21090AE  26199.21922029  .00000129  00000+0  28591-3 0  9998
2 49307  87.9182 268.2573 0001832  94.5926 265.5417 13.20769996233923
ONEWEB-0382             
1 49308U 21090AF  26199.20577191  .00000037  00000+0  59382-4 0  9995
2 49308  87.9180 268.2536 0001746  97.8887 262.2445 13.20772338233915
ONEWEB-0383             
1 49309U 21090AG  26199.46816078  .00000104  00000+0  24703-3 0  9997
2 49309  87.8972 283.4684 0001876 102.2347 257.8993 13.14503066231709
ONEWEB-0384             
1 49310U 21090AH  26199.26918248 -.00000034  00000+0 -11434-3 0  9990
2 49310  87.9183 268.2850 0001584 100.6947 259.4364 13.20813983233932
ONEWEB-0385             
1 49311U 21090AJ  26199.57781341  .00000099  00000+0  21262-3 0  9996
2 49311  87.9183 268.1850 0001894  96.7436 263.3913 13.20770287233948
ONEWEB-0386             
1 49312U 21090AK  26199.21585291 -.00000128  00000+0 -34721-3 0  9993
2 49312  87.9185 268.2494 0001846  99.0856 261.0486 13.20771477233914
ONEWEB-0387             
1 49313U 21090AL  26199.57949586  .00000070  00000+0  14011-3 0  9998
2 49313  87.9170 268.1942 0001927  87.7634 272.3720 13.20770259233962
ONEWEB-0388             
1 49314U 21090AM  26199.56853652 -.00000123  00000+0 -33943-3 0  9992
2 49314  87.9186 298.7207 0001859 100.0239 260.1104 13.19726036230552
ONEWEB-0389             
1 50469U 21132A   26199.40847106 -.00000236  00000+0 -64205-3 0  9992
2 50469  87.9148 359.6570 0001678  83.9455 276.1868 13.17648471222190
ONEWEB-0390             
1 50470U 21132B   26198.95454109 -.00000178  00000+0 -49179-3 0  9998
2 50470  87.9147 359.7483 0002072  90.5841 269.5528 13.17648958222130
ONEWEB-0391             
1 50471U 21132C   26199.41184541 -.00000189  00000+0 -51869-3 0  9992
2 50471  87.9150 359.6672 0001901  68.4906 291.6428 13.17648661222192
ONEWEB-0392             
1 50472U 21132D   26198.98660475  .00000027  00000+0  36334-4 0  9999
2 50472  87.9160 359.7222 0001700  83.5541 276.5784 13.17650905222175
ONEWEB-0393             
1 50473U 21132E   26199.41776962  .00000043  00000+0  78109-4 0  9992
2 50473  87.9145 359.6513 0001765  89.2194 270.9139 13.17647376222225
ONEWEB-0394             
1 50474U 21132F   26199.58685981  .00000147  00000+0  34068-3 0  9991
2 50474  87.9202 329.1991 0001763 100.2027 259.9305 13.18685875225737
